{
    "links": {
        "self": "http://www.neowsapp.com/rest/v1/neo/3781648?api_key=iIulBulltgU6a56xZRHN4H3l9WmuAYTsLGpBGhQ2"
    },
    "id": "3781648",
    "neo_reference_id": "3781648",
    "name": "(2017 SP10)",
    "designation": "2017 SP10",
    "nasa_jpl_url": "http://ssd.jpl.nasa.gov/sbdb.cgi?sstr=3781648",
    "absolute_magnitude_h": 26.1,
    "estimated_diameter": {
        "kilometers": {
            "estimated_diameter_min": 0.0160160338,
            "estimated_diameter_max": 0.0358129403
        },
        "meters": {
            "estimated_diameter_min": 16.0160337979,
            "estimated_diameter_max": 35.8129403019
        },
        "miles": {
            "estimated_diameter_min": 0.0099518989,
            "estimated_diameter_max": 0.0222531225
        },
        "feet": {
            "estimated_diameter_min": 52.5460443254,
            "estimated_diameter_max": 117.4965270602
        }
    },
    "is_potentially_hazardous_asteroid": false,
    "close_approach_data": [
        {
            "close_approach_date": "2014-08-20",
            "close_approach_date_full": "2014-Aug-20 03:14",
            "epoch_date_close_approach": 1408504440000,
            "relative_velocity": {
                "kilometers_per_second": "18.1554592449",
                "kilometers_per_hour": "65359.653281757",
                "miles_per_hour": "40611.9467849895"
            },
            "miss_distance": {
                "astronomical": "0.3817313235",
                "lunar": "148.4934848415",
                "kilometers": "57106192.907880945",
                "miles": "35484142.851389241"
            },
            "orbiting_body": "Earth"
        },
        {
            "close_approach_date": "2017-09-25",
            "close_approach_date_full": "2017-Sep-25 12:13",
            "epoch_date_close_approach": 1506341580000,
            "relative_velocity": {
                "kilometers_per_second": "9.2507149112",
                "kilometers_per_hour": "33302.5736803589",
                "miles_per_hour": "20692.9241848875"
            },
            "miss_distance": {
                "astronomical": "0.0313060905",
                "lunar": "12.1780692045",
                "kilometers": "4683324.456827235",
                "miles": "2910082.875136443"
            },
            "orbiting_body": "Earth"
        },
        {
            "close_approach_date": "2020-11-10",
            "close_approach_date_full": "2020-Nov-10 12:27",
            "epoch_date_close_approach": 1605011220000,
            "relative_velocity": {
                "kilometers_per_second": "14.4028161119",
                "kilometers_per_hour": "51850.1380029887",
                "miles_per_hour": "32217.6593608015"
            },
            "miss_distance": {
                "astronomical": "0.2925879794",
                "lunar": "113.8167239866",
                "kilometers": "43770538.505843878",
                "miles": "27197751.4510383964"
            },
            "orbiting_body": "Earth"
        }
    ],
    "orbital_data": {
        "orbit_id": "4",
        "orbit_determination_date": "2017-10-01 06:50:13",
        "first_observation_date": "2017-09-19",
        "last_observation_date": "2017-09-30",
        "data_arc_in_days": 11,
        "observations_used": 39,
        "orbit_uncertainty": "8",
        "minimum_orbit_intersection": ".0300769",
        "jupiter_tisserand_invariant": "3.539",
        "epoch_osculation": "2458018.5",
        "eccentricity": ".5142979466079661",
        "semi_major_axis": "2.108173913238922",
        "inclination": "11.24747692223477",
        "ascending_node_longitude": "181.5700536752415",
        "orbital_period": "1118.041899561754",
        "perihelion_distance": "1.023944398567664",
        "perihelion_argument": "194.1379656198922",
        "aphelion_distance": "3.192403427910181",
        "perihelion_time": "2458033.051126891679",
        "mean_anomaly": "355.31466067322",
        "mean_motion": ".3219915104622746",
        "equinox": "J2000",
        "orbit_class": {
            "orbit_class_type": "AMO",
            "orbit_class_description": "Near-Earth asteroid orbits similar to that of 1221 Amor",
            "orbit_class_range": "1.017 AU < q (perihelion) < 1.3 AU"
        }
    },
    "is_sentry_object": false
}